CCSDS_OMM_VERS = 2.0
CREATION_DATE  = 
ORIGINATOR     = 

OBJECT_NAME    = STARLINK-36175
OBJECT_ID      = 2025-293K
CENTER_NAME    = EARTH
REF_FRAME      = TEME
TIME_SYSTEM    = UTC
MEAN_ELEMENT_THEORY = SGP/SGP4

EPOCH          = 2025-12-20T14:00:03.000384
MEAN_MOTION    = 15.91668772
ECCENTRICITY   = .00040517
INCLINATION    = 69.9935
RA_OF_ASC_NODE = 300.9961
ARG_OF_PERICENTER = 269.0144
MEAN_ANOMALY   = 67.3919

EPHEMERIS_TYPE = 0
CLASSIFICATION_TYPE = U
NORAD_CAT_ID   = 67012
ELEMENT_SET_NO = 999
REV_AT_EPOCH   = 137
BSTAR          = -.39884685E-2
MEAN_MOTION_DOT = -.1298736E-1
MEAN_MOTION_DDOT = .48807348E-3

CCSDS_OMM_VERS = 2.0
CREATION_DATE  = 
ORIGINATOR     = 

OBJECT_NAME    = STARLINK-35856
OBJECT_ID      = 2025-293L
CENTER_NAME    = EARTH
REF_FRAME      = TEME
TIME_SYSTEM    = UTC
MEAN_ELEMENT_THEORY = SGP/SGP4

EPOCH          = 2025-12-20T14:00:03.000384
MEAN_MOTION    = 15.91709069
ECCENTRICITY   = .00040529
INCLINATION    = 69.9934
RA_OF_ASC_NODE = 300.9927
ARG_OF_PERICENTER = 268.4245
MEAN_ANOMALY   = 70.6146

EPHEMERIS_TYPE = 0
CLASSIFICATION_TYPE = U
NORAD_CAT_ID   = 67013
ELEMENT_SET_NO = 999
REV_AT_EPOCH   = 137
BSTAR          = -.40099902E-2
MEAN_MOTION_DOT = -.1308354E-1
MEAN_MOTION_DDOT = .49496045E-3

CCSDS_OMM_VERS = 2.0
CREATION_DATE  = 
ORIGINATOR     = 

OBJECT_NAME    = STARLINK-36207
OBJECT_ID      = 2025-293M
CENTER_NAME    = EARTH
REF_FRAME      = TEME
TIME_SYSTEM    = UTC
MEAN_ELEMENT_THEORY = SGP/SGP4

EPOCH          = 2025-12-20T14:00:03.000384
MEAN_MOTION    = 15.91747811
ECCENTRICITY   = .00040243
INCLINATION    = 69.9938
RA_OF_ASC_NODE = 300.9900
ARG_OF_PERICENTER = 270.3341
MEAN_ANOMALY   = 71.1633

EPHEMERIS_TYPE = 0
CLASSIFICATION_TYPE = U
NORAD_CAT_ID   = 67014
ELEMENT_SET_NO = 999
REV_AT_EPOCH   = 143
BSTAR          = -.40203734E-2
MEAN_MOTION_DOT = -.1314282E-1
MEAN_MOTION_DDOT = .49929662E-3

CCSDS_OMM_VERS = 2.0
CREATION_DATE  = 
ORIGINATOR     = 

OBJECT_NAME    = STARLINK-36093
OBJECT_ID      = 2025-293N
CENTER_NAME    = EARTH
REF_FRAME      = TEME
TIME_SYSTEM    = UTC
MEAN_ELEMENT_THEORY = SGP/SGP4

EPOCH          = 2025-12-20T14:00:03.000384
MEAN_MOTION    = 15.91813293
ECCENTRICITY   = .00039679
INCLINATION    = 69.9934
RA_OF_ASC_NODE = 300.9840
ARG_OF_PERICENTER = 266.5831
MEAN_ANOMALY   = 79.7713

EPHEMERIS_TYPE = 0
CLASSIFICATION_TYPE = U
NORAD_CAT_ID   = 67015
ELEMENT_SET_NO = 999
REV_AT_EPOCH   = 137
BSTAR          = -.4006057E-2
MEAN_MOTION_DOT = -.1313995E-1
MEAN_MOTION_DDOT = .49941948E-3

CCSDS_OMM_VERS = 2.0
CREATION_DATE  = 
ORIGINATOR     = 

OBJECT_NAME    = STARLINK-36120
OBJECT_ID      = 2025-293P
CENTER_NAME    = EARTH
REF_FRAME      = TEME
TIME_SYSTEM    = UTC
MEAN_ELEMENT_THEORY = SGP/SGP4

EPOCH          = 2025-12-20T14:00:03.000384
MEAN_MOTION    = 15.91783291
ECCENTRICITY   = .00040172
INCLINATION    = 69.9936
RA_OF_ASC_NODE = 300.9872
ARG_OF_PERICENTER = 267.2169
MEAN_ANOMALY   = 76.5528

EPHEMERIS_TYPE = 0
CLASSIFICATION_TYPE = U
NORAD_CAT_ID   = 67016
ELEMENT_SET_NO = 999
REV_AT_EPOCH   = 137
BSTAR          = -.40248186E-2
MEAN_MOTION_DOT = -.1318096E-1
MEAN_MOTION_DDOT = .50214972E-3

CCSDS_OMM_VERS = 2.0
CREATION_DATE  = 
ORIGINATOR     = 

OBJECT_NAME    = STARLINK-35498
OBJECT_ID      = 2025-293Q
CENTER_NAME    = EARTH
REF_FRAME      = TEME
TIME_SYSTEM    = UTC
MEAN_ELEMENT_THEORY = SGP/SGP4

EPOCH          = 2025-12-20T14:00:03.000384
MEAN_MOTION    = 15.91851936
ECCENTRICITY   = .0003999
INCLINATION    = 69.9932
RA_OF_ASC_NODE = 300.9811
ARG_OF_PERICENTER = 267.3076
MEAN_ANOMALY   = 81.4438

EPHEMERIS_TYPE = 0
CLASSIFICATION_TYPE = U
NORAD_CAT_ID   = 67017
ELEMENT_SET_NO = 999
REV_AT_EPOCH   = 156
BSTAR          = -.40150866E-2
MEAN_MOTION_DOT = -.1319537E-1
MEAN_MOTION_DDOT = .50350566E-3

CCSDS_OMM_VERS = 2.0
CREATION_DATE  = 
ORIGINATOR     = 

OBJECT_NAME    = STARLINK-36106
OBJECT_ID      = 2025-293R
CENTER_NAME    = EARTH
REF_FRAME      = TEME
TIME_SYSTEM    = UTC
MEAN_ELEMENT_THEORY = SGP/SGP4

EPOCH          = 2025-12-20T14:00:03.000384
MEAN_MOTION    = 15.91889562
ECCENTRICITY   = .00040249
INCLINATION    = 69.9931
RA_OF_ASC_NODE = 300.9779
ARG_OF_PERICENTER = 268.1639
MEAN_ANOMALY   = 83.0060

EPHEMERIS_TYPE = 0
CLASSIFICATION_TYPE = U
NORAD_CAT_ID   = 67018
ELEMENT_SET_NO = 999
REV_AT_EPOCH   = 148
BSTAR          = -.40220682E-2
MEAN_MOTION_DOT = -.1324359E-1
MEAN_MOTION_DDOT = .50709417E-3

CCSDS_OMM_VERS = 2.0
CREATION_DATE  = 
ORIGINATOR     = 

OBJECT_NAME    = STARLINK-35688
OBJECT_ID      = 2025-293S
CENTER_NAME    = EARTH
REF_FRAME      = TEME
TIME_SYSTEM    = UTC
MEAN_ELEMENT_THEORY = SGP/SGP4

EPOCH          = 2025-12-20T14:00:03.000384
MEAN_MOTION    = 15.91928212
ECCENTRICITY   = .00039814
INCLINATION    = 69.9930
RA_OF_ASC_NODE = 300.9750
ARG_OF_PERICENTER = 267.4173
MEAN_ANOMALY   = 86.0015

EPHEMERIS_TYPE = 0
CLASSIFICATION_TYPE = U
NORAD_CAT_ID   = 67019
ELEMENT_SET_NO = 999
REV_AT_EPOCH   = 157
BSTAR          = -.40283381E-2
MEAN_MOTION_DOT = -.1328997E-1
MEAN_MOTION_DDOT = .51057135E-3

CCSDS_OMM_VERS = 2.0
CREATION_DATE  = 
ORIGINATOR     = 

OBJECT_NAME    = STARLINK-36172
OBJECT_ID      = 2025-293T
CENTER_NAME    = EARTH
REF_FRAME      = TEME
TIME_SYSTEM    = UTC
MEAN_ELEMENT_THEORY = SGP/SGP4

EPOCH          = 2025-12-20T14:00:03.000384
MEAN_MOTION    = 15.91977561
ECCENTRICITY   = .0004038
INCLINATION    = 69.9929
RA_OF_ASC_NODE = 300.9718
ARG_OF_PERICENTER = 270.8051
MEAN_ANOMALY   = 85.4689

EPHEMERIS_TYPE = 0
CLASSIFICATION_TYPE = U
NORAD_CAT_ID   = 67020
ELEMENT_SET_NO = 999
REV_AT_EPOCH   = 149
BSTAR          = -.40570936E-2
MEAN_MOTION_DOT = -.1341789E-1
MEAN_MOTION_DDOT = .51992922E-3

CCSDS_OMM_VERS = 2.0
CREATION_DATE  = 
ORIGINATOR     = 

OBJECT_NAME    = STARLINK-36184
OBJECT_ID      = 2025-293U
CENTER_NAME    = EARTH
REF_FRAME      = TEME
TIME_SYSTEM    = UTC
MEAN_ELEMENT_THEORY = SGP/SGP4

EPOCH          = 2025-12-20T14:00:03.000384
MEAN_MOTION    = 15.92021623
ECCENTRICITY   = .00039969
INCLINATION    = 69.9932
RA_OF_ASC_NODE = 300.9685
ARG_OF_PERICENTER = 269.0506
MEAN_ANOMALY   = 89.8301

EPHEMERIS_TYPE = 0
CLASSIFICATION_TYPE = U
NORAD_CAT_ID   = 67021
ELEMENT_SET_NO = 999
REV_AT_EPOCH   = 149
BSTAR          = -.40896354E-2
MEAN_MOTION_DOT = -.1355464E-1
MEAN_MOTION_DDOT = .52997933E-3

CCSDS_OMM_VERS = 2.0
CREATION_DATE  = 
ORIGINATOR     = 

OBJECT_NAME    = STARLINK-36209
OBJECT_ID      = 2025-293V
CENTER_NAME    = EARTH
REF_FRAME      = TEME
TIME_SYSTEM    = UTC
MEAN_ELEMENT_THEORY = SGP/SGP4

EPOCH          = 2025-12-20T14:00:03.000384
MEAN_MOTION    = 15.92062869
ECCENTRICITY   = .00040584
INCLINATION    = 69.9930
RA_OF_ASC_NODE = 300.9650
ARG_OF_PERICENTER = 269.8912
MEAN_ANOMALY   = 92.0452

EPHEMERIS_TYPE = 0
CLASSIFICATION_TYPE = U
NORAD_CAT_ID   = 67022
ELEMENT_SET_NO = 999
REV_AT_EPOCH   = 149
BSTAR          = -.40942506E-2
MEAN_MOTION_DOT = -.1359869E-1
MEAN_MOTION_DDOT = .53338035E-3

CCSDS_OMM_VERS = 2.0
CREATION_DATE  = 
ORIGINATOR     = 

OBJECT_NAME    = STARLINK-36191
OBJECT_ID      = 2025-293W
CENTER_NAME    = EARTH
REF_FRAME      = TEME
TIME_SYSTEM    = UTC
MEAN_ELEMENT_THEORY = SGP/SGP4

EPOCH          = 2025-12-20T14:00:03.000384
MEAN_MOTION    = 15.92103209
ECCENTRICITY   = .00041174
INCLINATION    = 69.9929
RA_OF_ASC_NODE = 300.9614
ARG_OF_PERICENTER = 271.2327
MEAN_ANOMALY   = 93.1996

EPHEMERIS_TYPE = 0
CLASSIFICATION_TYPE = U
NORAD_CAT_ID   = 67023
ELEMENT_SET_NO = 999
REV_AT_EPOCH   = 138
BSTAR          = -.40973101E-2
MEAN_MOTION_DOT = -.1363712E-1
MEAN_MOTION_DDOT = .53637981E-3

