STARLINK-36175          
1 67012U 25293K   25354.58336806 -.01298736  48807-3 -39885-2 0  9998
2 67012  69.9935 300.9961 0004051 269.0144  67.3919 15.91668772  1371
STARLINK-35856          
1 67013U 25293L   25354.58336806 -.01308354  49496-3 -40100-2 0  9994
2 67013  69.9934 300.9927 0004052 268.4245  70.6146 15.91709069  1373
STARLINK-36207          
1 67014U 25293M   25354.58336806 -.01314282  49930-3 -40204-2 0  9990
2 67014  69.9938 300.9900 0004024 270.3341  71.1633 15.91747811  1438
STARLINK-36093          
1 67015U 25293N   25354.58336806 -.01313995  49942-3 -40061-2 0  9995
2 67015  69.9934 300.9840 0003967 266.5831  79.7713 15.91813293  1378
STARLINK-36120          
1 67016U 25293P   25354.58336806 -.01318096  50215-3 -40248-2 0  9995
2 67016  69.9936 300.9872 0004017 267.2169  76.5528 15.91783291  1378
STARLINK-35498          
1 67017U 25293Q   25354.58336806 -.01319537  50351-3 -40151-2 0  9991
2 67017  69.9932 300.9811 0003999 267.3076  81.4438 15.91851936  1562
STARLINK-36106          
1 67018U 25293R   25354.58336806 -.01324359  50709-3 -40221-2 0  9995
2 67018  69.9931 300.9779 0004024 268.1639  83.0060 15.91889562  1485
STARLINK-35688          
1 67019U 25293S   25354.58336806 -.01328997  51057-3 -40283-2 0  9993
2 67019  69.9930 300.9750 0003981 267.4173  86.0015 15.91928212  1579
STARLINK-36172          
1 67020U 25293T   25354.58336806 -.01341789  51993-3 -40571-2 0  9998
2 67020  69.9929 300.9718 0004038 270.8051  85.4689 15.91977561  1492
STARLINK-36184          
1 67021U 25293U   25354.58336806 -.01355464  52998-3 -40896-2 0  9990
2 67021  69.9932 300.9685 0003996 269.0506  89.8301 15.92021623  1496
STARLINK-36209          
1 67022U 25293V   25354.58336806 -.01359869  53338-3 -40943-2 0  9996
2 67022  69.9930 300.9650 0004058 269.8912  92.0452 15.92062869  1496
STARLINK-36191          
1 67023U 25293W   25354.58336806 -.01363712  53638-3 -40973-2 0  9995
2 67023  69.9929 300.9614 0004117 271.2327  93.1996 15.92103209  1385
